[{"OBJECT_NAME":"PLEIADES NEO 4","OBJECT_ID":"2021-073E","EPOCH":"2026-03-09T22:43:10.158240","MEAN_MOTION":14.81670727,"ECCENTRICITY":0.00013011,"INCLINATION":97.8928,"RA_OF_ASC_NODE":145.1333,"ARG_OF_PERICENTER":92.4306,"MEAN_ANOMALY":267.7056,"EPHEMERIS_TYPE":0,"CLASSIFICATION_TYPE":"U","NORAD_CAT_ID":49070,"ELEMENT_SET_NO":999,"REV_AT_EPOCH":24667,"BSTAR":-4.8245874e-5,"MEAN_MOTION_DOT":-4.32e-6,"MEAN_MOTION_DDOT":0},{"OBJECT_NAME":"CZ-6A DEB","OBJECT_ID":"2024-140VK","EPOCH":"2026-03-09T08:08:08.530368","MEAN_MOTION":14.8387023,"ECCENTRICITY":0.00525207,"INCLINATION":88.9538,"RA_OF_ASC_NODE":278.1278,"ARG_OF_PERICENTER":205.341,"MEAN_ANOMALY":154.5239,"EPHEMERIS_TYPE":0,"CLASSIFICATION_TYPE":"U","NORAD_CAT_ID":61346,"ELEMENT_SET_NO":999,"REV_AT_EPOCH":8017,"BSTAR":0.0048154655,"MEAN_MOTION_DOT":0.00041143,"MEAN_MOTION_DDOT":0}]
